HULIANWANG DIGUI-12     
1 62972U 25030B   26193.87991603 -.00000126  00000+0 -35615-5 0  9995
2 62972  50.0013 143.8026 0000995 265.0642  95.0117 13.29322195 69273
HULIANWANG DIGUI-13     
1 62973U 25030C   26193.86312237 -.00000122  00000+0  47273-5 0  9993
2 62973  50.0016 143.7304 0000820 265.1712  94.9067 13.29324295 69276
HULIANWANG DIGUI-14     
1 62974U 25030D   26193.83813123 -.00000119  00000+0  11574-4 0  9991
2 62974  50.0021 143.6232 0000820 269.1501  90.9277 13.29327296 69275
HULIANWANG DIGUI-15     
1 62975U 25030E   26193.85479464 -.00000121  00000+0  64260-5 0  9994
2 62975  50.0017 143.6901 0000911 268.2268  91.8500 13.29324280 69274
HULIANWANG DIGUI-16     
1 62976U 25030F   26193.82985163 -.00000116  00000+0  18035-4 0  9992
2 62976  50.0039 143.6496 0000794 267.9050  92.1731 13.29325458 69270
HULIANWANG DIGUI-17     
1 62977U 25030G   26193.82139911 -.00000117  00000+0  14312-4 0  9990
2 62977  50.0051 143.6572 0000905 260.9401  99.1369 13.29325594 69272
HULIANWANG DIGUI-18     
1 62978U 25030H   26193.81303160 -.00000119  00000+0  11273-4 0  9994
2 62978  50.0056 143.6280 0000938 260.0336 100.0431 13.29327572 69278
HULIANWANG DIGUI-19     
1 62979U 25030J   26193.84655637 -.00000130  00000+0 -12767-4 0  9990
2 62979  50.0041 143.7440 0000836 258.1440 101.9339 13.29318843 69271
HULIANWANG DIGUI-20     
1 63687U 25086A   26193.78672522  .00000035  00000+0  47663-4 0  9998
2 63687  86.5065 304.5107 0001979 113.4045 246.7297 13.24411426 58262
HULIANWANG DIGUI-21     
1 63688U 25086B   26193.79430604  .00000040  00000+0  58824-4 0  9990
2 63688  86.5094 304.5728 0001897 116.2497 243.8832 13.24410082 58254
HULIANWANG DIGUI-22     
1 63689U 25086C   26193.80182794  .00000042  00000+0  64289-4 0  9991
2 63689  86.5059 304.4296 0002030 112.9106 247.2242 13.24410468 58256
HULIANWANG DIGUI-23     
1 63690U 25086D   26193.81691272  .00000009  00000+0 -13595-4 0  9998
2 63690  86.5101 304.6132 0001996 113.3908 246.7436 13.24410215 58251
HULIANWANG DIGUI-24     
1 63691U 25086E   26193.82450485  .00000001  00000+0 -31881-4 0  9999
2 63691  86.5108 304.6459 0001942 115.7362 244.3972 13.24410909 58251
HULIANWANG DIGUI-25     
1 63692U 25086F   26193.83205830  .00000005  00000+0 -21532-4 0  9999
2 63692  86.5046 304.3887 0001906 113.1184 247.0151 13.24410260 58258
HULIANWANG DIGUI-26     
1 63693U 25086G   26193.80935874  .00000033  00000+0  42256-4 0  9991
2 63693  86.5095 304.5835 0002090 119.6690 240.4652 13.24409263 58250
HULIANWANG DIGUI-27     
1 63694U 25086H   26193.83959006  .00000005  00000+0 -22196-4 0  9999
2 63694  86.5056 304.4324 0001962 115.0244 245.1094 13.24412069 58252
