{"fetched_at":"2026-07-13T05:28:12.237Z","source":"https://celestrak.org/NORAD/elements/gp.php?NAME=HULIANWANG&FORMAT=JSON","constellation":"guowang","records":[{"OBJECT_NAME":"HULIANWANG DIGUI-12","OBJECT_ID":"2025-030B","EPOCH":"2026-07-12T21:07:04.744992","CLASSIFICATION_TYPE":"U","MEAN_MOTION":13.29322195,"ECCENTRICITY":0.0000995,"INCLINATION":50.0013,"RA_OF_ASC_NODE":143.8026,"ARG_OF_PERICENTER":265.0642,"MEAN_ANOMALY":95.0117,"EPHEMERIS_TYPE":0,"NORAD_CAT_ID":62972,"ELEMENT_SET_NO":999,"REV_AT_EPOCH":6927,"BSTAR":-0.0000035615,"MEAN_MOTION_DOT":-0.00000126,"MEAN_MOTION_DDOT":0},{"OBJECT_NAME":"HULIANWANG DIGUI-13","OBJECT_ID":"2025-030C","EPOCH":"2026-07-12T20:42:53.772768","CLASSIFICATION_TYPE":"U","MEAN_MOTION":13.29324295,"ECCENTRICITY":0.000082,"INCLINATION":50.0016,"RA_OF_ASC_NODE":143.7304,"ARG_OF_PERICENTER":265.1712,"MEAN_ANOMALY":94.9067,"EPHEMERIS_TYPE":0,"NORAD_CAT_ID":62973,"ELEMENT_SET_NO":999,"REV_AT_EPOCH":6927,"BSTAR":0.0000047273,"MEAN_MOTION_DOT":-0.00000122,"MEAN_MOTION_DDOT":0},{"OBJECT_NAME":"HULIANWANG DIGUI-14","OBJECT_ID":"2025-030D","EPOCH":"2026-07-12T20:06:54.538272","CLASSIFICATION_TYPE":"U","MEAN_MOTION":13.29327296,"ECCENTRICITY":0.000082,"INCLINATION":50.0021,"RA_OF_ASC_NODE":143.6232,"ARG_OF_PERICENTER":269.1501,"MEAN_ANOMALY":90.9277,"EPHEMERIS_TYPE":0,"NORAD_CAT_ID":62974,"ELEMENT_SET_NO":999,"REV_AT_EPOCH":6927,"BSTAR":0.000011574,"MEAN_MOTION_DOT":-0.00000119,"MEAN_MOTION_DDOT":0},{"OBJECT_NAME":"HULIANWANG DIGUI-15","OBJECT_ID":"2025-030E","EPOCH":"2026-07-12T20:30:54.256896","CLASSIFICATION_TYPE":"U","MEAN_MOTION":13.2932428,"ECCENTRICITY":0.0000911,"INCLINATION":50.0017,"RA_OF_ASC_NODE":143.6901,"ARG_OF_PERICENTER":268.2268,"MEAN_ANOMALY":91.85,"EPHEMERIS_TYPE":0,"NORAD_CAT_ID":62975,"ELEMENT_SET_NO":999,"REV_AT_EPOCH":6927,"BSTAR":0.000006426,"MEAN_MOTION_DOT":-0.00000121,"MEAN_MOTION_DDOT":0},{"OBJECT_NAME":"HULIANWANG DIGUI-16","OBJECT_ID":"2025-030F","EPOCH":"2026-07-12T19:54:59.180832","CLASSIFICATION_TYPE":"U","MEAN_MOTION":13.29325458,"ECCENTRICITY":0.0000794,"INCLINATION":50.0039,"RA_OF_ASC_NODE":143.6496,"ARG_OF_PERICENTER":267.905,"MEAN_ANOMALY":92.1731,"EPHEMERIS_TYPE":0,"NORAD_CAT_ID":62976,"ELEMENT_SET_NO":999,"REV_AT_EPOCH":6927,"BSTAR":0.000018035,"MEAN_MOTION_DOT":-0.00000116,"MEAN_MOTION_DDOT":0},{"OBJECT_NAME":"HULIANWANG DIGUI-17","OBJECT_ID":"2025-030G","EPOCH":"2026-07-12T19:42:48.883104","CLASSIFICATION_TYPE":"U","MEAN_MOTION":13.29325594,"ECCENTRICITY":0.0000905,"INCLINATION":50.0051,"RA_OF_ASC_NODE":143.6572,"ARG_OF_PERICENTER":260.9401,"MEAN_ANOMALY":99.1369,"EPHEMERIS_TYPE":0,"NORAD_CAT_ID":62977,"ELEMENT_SET_NO":999,"REV_AT_EPOCH":6927,"BSTAR":0.000014312,"MEAN_MOTION_DOT":-0.00000117,"MEAN_MOTION_DDOT":0},{"OBJECT_NAME":"HULIANWANG DIGUI-18","OBJECT_ID":"2025-030H","EPOCH":"2026-07-12T19:30:45.930240","CLASSIFICATION_TYPE":"U","MEAN_MOTION":13.29327572,"ECCENTRICITY":0.0000938,"INCLINATION":50.0056,"RA_OF_ASC_NODE":143.628,"ARG_OF_PERICENTER":260.0336,"MEAN_ANOMALY":100.0431,"EPHEMERIS_TYPE":0,"NORAD_CAT_ID":62978,"ELEMENT_SET_NO":999,"REV_AT_EPOCH":6927,"BSTAR":0.000011273,"MEAN_MOTION_DOT":-0.00000119,"MEAN_MOTION_DDOT":0},{"OBJECT_NAME":"HULIANWANG DIGUI-19","OBJECT_ID":"2025-030J","EPOCH":"2026-07-12T20:19:02.470368","CLASSIFICATION_TYPE":"U","MEAN_MOTION":13.29318843,"ECCENTRICITY":0.0000836,"INCLINATION":50.0041,"RA_OF_ASC_NODE":143.744,"ARG_OF_PERICENTER":258.144,"MEAN_ANOMALY":101.9339,"EPHEMERIS_TYPE":0,"NORAD_CAT_ID":62979,"ELEMENT_SET_NO":999,"REV_AT_EPOCH":6927,"BSTAR":-0.000012767,"MEAN_MOTION_DOT":-0.0000013,"MEAN_MOTION_DDOT":0},{"OBJECT_NAME":"HULIANWANG DIGUI-20","OBJECT_ID":"2025-086A","EPOCH":"2026-07-12T18:52:53.059008","CLASSIFICATION_TYPE":"U","MEAN_MOTION":13.24411426,"ECCENTRICITY":0.0001979,"INCLINATION":86.5065,"RA_OF_ASC_NODE":304.5107,"ARG_OF_PERICENTER":113.4045,"MEAN_ANOMALY":246.7297,"EPHEMERIS_TYPE":0,"NORAD_CAT_ID":63687,"ELEMENT_SET_NO":999,"REV_AT_EPOCH":5826,"BSTAR":0.000047663,"MEAN_MOTION_DOT":3.5e-7,"MEAN_MOTION_DDOT":0},{"OBJECT_NAME":"HULIANWANG DIGUI-21","OBJECT_ID":"2025-086B","EPOCH":"2026-07-12T19:03:48.041856","CLASSIFICATION_TYPE":"U","MEAN_MOTION":13.24410082,"ECCENTRICITY":0.0001897,"INCLINATION":86.5094,"RA_OF_ASC_NODE":304.5728,"ARG_OF_PERICENTER":116.2497,"MEAN_ANOMALY":243.8832,"EPHEMERIS_TYPE":0,"NORAD_CAT_ID":63688,"ELEMENT_SET_NO":999,"REV_AT_EPOCH":5825,"BSTAR":0.000058824,"MEAN_MOTION_DOT":4e-7,"MEAN_MOTION_DDOT":0},{"OBJECT_NAME":"HULIANWANG DIGUI-22","OBJECT_ID":"2025-086C","EPOCH":"2026-07-12T19:14:37.934016","CLASSIFICATION_TYPE":"U","MEAN_MOTION":13.24410468,"ECCENTRICITY":0.000203,"INCLINATION":86.5059,"RA_OF_ASC_NODE":304.4296,"ARG_OF_PERICENTER":112.9106,"MEAN_ANOMALY":247.2242,"EPHEMERIS_TYPE":0,"NORAD_CAT_ID":63689,"ELEMENT_SET_NO":999,"REV_AT_EPOCH":5825,"BSTAR":0.000064289,"MEAN_MOTION_DOT":4.2e-7,"MEAN_MOTION_DDOT":0},{"OBJECT_NAME":"HULIANWANG DIGUI-23","OBJECT_ID":"2025-086D","EPOCH":"2026-07-12T19:36:21.259008","CLASSIFICATION_TYPE":"U","MEAN_MOTION":13.24410215,"ECCENTRICITY":0.0001996,"INCLINATION":86.5101,"RA_OF_ASC_NODE":304.6132,"ARG_OF_PERICENTER":113.3908,"MEAN_ANOMALY":246.7436,"EPHEMERIS_TYPE":0,"NORAD_CAT_ID":63690,"ELEMENT_SET_NO":999,"REV_AT_EPOCH":5825,"BSTAR":-0.000013595,"MEAN_MOTION_DOT":9e-8,"MEAN_MOTION_DDOT":0},{"OBJECT_NAME":"HULIANWANG DIGUI-24","OBJECT_ID":"2025-086E","EPOCH":"2026-07-12T19:47:17.219040","CLASSIFICATION_TYPE":"U","MEAN_MOTION":13.24410909,"ECCENTRICITY":0.0001942,"INCLINATION":86.5108,"RA_OF_ASC_NODE":304.6459,"ARG_OF_PERICENTER":115.7362,"MEAN_ANOMALY":244.3972,"EPHEMERIS_TYPE":0,"NORAD_CAT_ID":63691,"ELEMENT_SET_NO":999,"REV_AT_EPOCH":5825,"BSTAR":-0.000031881,"MEAN_MOTION_DOT":1e-8,"MEAN_MOTION_DDOT":0},{"OBJECT_NAME":"HULIANWANG DIGUI-25","OBJECT_ID":"2025-086F","EPOCH":"2026-07-12T19:58:09.837120","CLASSIFICATION_TYPE":"U","MEAN_MOTION":13.2441026,"ECCENTRICITY":0.0001906,"INCLINATION":86.5046,"RA_OF_ASC_NODE":304.3887,"ARG_OF_PERICENTER":113.1184,"MEAN_ANOMALY":247.0151,"EPHEMERIS_TYPE":0,"NORAD_CAT_ID":63692,"ELEMENT_SET_NO":999,"REV_AT_EPOCH":5825,"BSTAR":-0.000021532,"MEAN_MOTION_DOT":5e-8,"MEAN_MOTION_DDOT":0},{"OBJECT_NAME":"HULIANWANG DIGUI-26","OBJECT_ID":"2025-086G","EPOCH":"2026-07-12T19:25:28.595136","CLASSIFICATION_TYPE":"U","MEAN_MOTION":13.24409263,"ECCENTRICITY":0.000209,"INCLINATION":86.5095,"RA_OF_ASC_NODE":304.5835,"ARG_OF_PERICENTER":119.669,"MEAN_ANOMALY":240.4652,"EPHEMERIS_TYPE":0,"NORAD_CAT_ID":63693,"ELEMENT_SET_NO":999,"REV_AT_EPOCH":5825,"BSTAR":0.000042256,"MEAN_MOTION_DOT":3.3e-7,"MEAN_MOTION_DDOT":0},{"OBJECT_NAME":"HULIANWANG DIGUI-27","OBJECT_ID":"2025-086H","EPOCH":"2026-07-12T20:09:00.581184","CLASSIFICATION_TYPE":"U","MEAN_MOTION":13.24412069,"ECCENTRICITY":0.0001962,"INCLINATION":86.5056,"RA_OF_ASC_NODE":304.4324,"ARG_OF_PERICENTER":115.0244,"MEAN_ANOMALY":245.1094,"EPHEMERIS_TYPE":0,"NORAD_CAT_ID":63694,"ELEMENT_SET_NO":999,"REV_AT_EPOCH":5825,"BSTAR":-0.000022196,"MEAN_MOTION_DOT":5e-8,"MEAN_MOTION_DDOT":0}]}
